ONEWEB-0102             
1 47258U 20100A   25302.51734954 -.00000294  00000+0 -85257-3 0  9995
2 47258  87.8975  36.5098 0001902  99.4240 260.7103 13.12441469234477
ONEWEB-0109             
1 47259U 20100B   25302.52545475 -.00000361  00000+0 -10399-2 0  9994
2 47259  87.8975  36.4762 0001858 101.1464 258.9874 13.12441229234304
ONEWEB-0110             
1 47260U 20100C   25302.32271273  .00000231  00000+0  60687-3 0  9996
2 47260  87.8970  36.4999 0001867 109.6938 250.4392 13.12443324234447
ONEWEB-0111             
1 47261U 20100D   25302.50599713 -.00000027  00000+0 -11024-3 0  9995
2 47261  87.8971  36.4813 0001775 101.5443 258.5885 13.12443364234309
ONEWEB-0114             
1 47262U 20100E   25302.53682187 -.00000189  00000+0 -56029-3 0  9990
2 47262  87.8973  36.4692 0001953  94.1282 266.0070 13.12443896234268
ONEWEB-0117             
1 47263U 20100F   25302.29998641 -.00000309  00000+0 -89490-3 0  9991
2 47263  87.8973  36.5142 0001735 103.0413 257.0910 13.12441484234246
ONEWEB-0118             
1 47264U 20100G   25302.17997130  .00000393  00000+0  10577-2 0  9991
2 47264  87.8971  36.5372 0001749  90.1770 269.9559 13.12441515234423
ONEWEB-0119             
1 47265U 20100H   25302.51248293 -.00000197  00000+0 -58234-3 0  9996
2 47265  87.8972  36.5080 0001802 102.5411 257.5919 13.12440985234446
